[ 
   { 
      "deaNum":"321D",
      "Client_ID":"1",
      "name":"ABC",
      "Address1":"34 street 1",
      "Address2":"23 ste",
      "Address3":"NY",
      "City":"NN",
      "State":"FD",
      "Zip":"23214",
      "participants":[ 
         { 
            "deaNum":"321D",
            "Client_ID":"1",
            "name":"ABC",
            "Address1":"34 street 1",
            "Address2":"23 ste",
            "Address3":"NY",
            "City":"NN",
            "State":"FD",
            "Zip":"23214"
         },
         { 
            "deaNum":"321D",
            "Client_ID":"1",
            "name":"ABC",
            "Address1":"34 street 1",
            "Address2":"23 ste",
            "Address3":"NY",
            "City":"NN",
            "State":"FD",
            "Zip":"23214"
         },
         { 
            "deaNum":"321D",
            "Client_ID":"1",
            "name":"ABC",
            "Address1":"34 street 1",
            "Address2":"23 ste",
            "Address3":"NY",
            "City":"NN",
            "State":"FD",
            "Zip":"23214"
         },
         { 
            "deaNum":"321D",
            "Client_ID":"1",
            "name":"ABC",
            "Address1":"34 street 1",
            "Address2":"23 ste",
            "Address3":"NY",
            "City":"NN",
            "State":"FD",
            "Zip":"23214"
         },
         { 
            "deaNum":"321D",
            "Client_ID":"1",
            "name":"ABC",
            "Address1":"34 street 1",
            "Address2":"23 ste",
            "Address3":"NY",
            "City":"NN",
            "State":"FD",
            "Zip":"23214"
         },
         { 
            "deaNum":"321D",
            "Client_ID":"1",
            "name":"ABC",
            "Address1":"34 street 1",
            "Address2":"23 ste",
            "Address3":"NY",
            "City":"NN",
            "State":"FD",
            "Zip":"23214"
         },
         { 
            "deaNum":"321D",
            "Client_ID":"1",
            "name":"ABC",
            "Address1":"34 street 1",
            "Address2":"23 ste",
            "Address3":"NY",
            "City":"NN",
            "State":"FD",
            "Zip":"23214"
         },

      ]
   },
   { 
      "deaNum":"321D",
      "Client_ID":"1",
      "name":"ABC",
      "Address1":"34 street 1",
      "Address2":"23 ste",
      "Address3":"NY",
      "City":"NN",
      "State":"FD",
      "Zip":"23214",
      "participants":[ 

      ]
   },
   { 
      "deaNum":"321D",
      "Client_ID":"1",
      "name":"ABC",
      "Address1":"34 street 1",
      "Address2":"23 ste",
      "Address3":"NY",
      "City":"NN",
      "State":"FD",
      "Zip":"23214"
   },
   { 
      "deaNum":"321D",
      "Client_ID":"1",
      "name":"ABC",
      "Address1":"34 street 1",
      "Address2":"23 ste",
      "Address3":"NY",
      "City":"NN",
      "State":"FD",
      "Zip":"23214"
   },
   { 
      "deaNum":"321D",
      "Client_ID":"1",
      "name":"ABC",
      "Address1":"34 street 1",
      "Address2":"23 ste",
      "Address3":"NY",
      "City":"NN",
      "State":"FD",
      "Zip":"23214"
   },
   { 
      "deaNum":"321D",
      "Client_ID":"1",
      "name":"ABC",
      "Address1":"34 street 1",
      "Address2":"23 ste",
      "Address3":"NY",
      "City":"NN",
      "State":"FD",
      "Zip":"23214"
   },
   { 
      "deaNum":"321D",
      "Client_ID":"1",
      "name":"ABC",
      "Address1":"34 street 1",
      "Address2":"23 ste",
      "Address3":"NY",
      "City":"NN",
      "State":"FD",
      "Zip":"23214"
   },
   { 
      "deaNum":"321D",
      "Client_ID":"1",
      "name":"ABC",
      "Address1":"34 street 1",
      "Address2":"23 ste",
      "Address3":"NY",
      "City":"NN",
      "State":"FD",
      "Zip":"23214"
   },

]
